#dP2021  4  2  0  0  0.00000000      96 __u+U ITR00 FIT  IAC
## 2151 432000.00000000   900.00000000 59306 0.0000000000000
+  116   C06C07C08C09C10C11C12C13C14C16C19C20C21C22C23C24C25
+        C26C27C28C29C30C32C33C34C35C36C37C38C39C40C41C42C43
+        C44C45C46E01E02E03E04E05E07E08E09E11E12E13E14E15E18
+        E19E21E24E25E26E27E30E31E33E36G01G02G03G04G05G06G07
+        G08G10G11G12G13G14G15G16G17G18G19G20G21G22G23G24G25
+        G26G27G28G29G30G31G32J01J02J03R01R02R03R04R05R07R08
+        R09R11R12R13R14R15R16R17R18R19R20R21R22R24  0  0  0
++         8 10  8  8  9 10  8  9  7  7  8  8  7  6  6  8  7
++         7  7  8  8  7  8  8  7  7  8  7  8  9  9  7  8  7
++         7  7  7  6  6  6  6  7  7  7  7  6  7  7  7  6  8
++         6  5  6  7  7  6  7  8  7  7  6  6  6  6  6  6  6
++         6  7  6  6  6  6  5  7  6  5  9  7  6  6  5  5  6
++         6  6  6  6  6  6  6 10  7  9  7  8  6  7  7  7  7
++         6  5  7  8  6  7  6  5  8  7  8  7  9  8  0  0  0
%c M  cc GPS ccc cccc cccc cccc cccc ccccc ccccc ccccc ccccc
%c cc cc ccc ccc cccc cccc cccc cccc ccccc ccccc ccccc ccccc
%f  0.0000000  0.000000000  0.00000000000  0.000000000000000
%f  0.0000000  0.000000000  0.00000000000  0.000000000000000
%i    0    0    0    0      0      0      0      0         0
%i    0    0    0    0      0      0      0      0         0
/* INFORMATION & ANALYSIS CENTER (IAC)      ULTRA-RAPID DATA
/* S/V CLOCKS ARE ALIGNED TO GNSS TIME                      
/* G:C1WC2W R:C1PC2P E:C1XC5X C:C2IC6I J:C1CC2S             
/* PCV:IGS14_2134 OL/AL:FES2004  NONE     YN ORB:CoN CLK:CoN
*  2021 04 02  1  0  0.00000000
PC06 -23858.350619  27837.394523  20838.132392    235.753219
PC07 -13150.112729  36808.795959  16699.925255    -77.672948
PC08  -9911.791875  18863.794908 -36259.657269   -895.036587
PC09  -9445.612886  27609.774205  30565.568084    625.925031
PC10  -2659.492474  42133.302384   4202.913895    -62.704950
PC11  26812.621690  -7561.814080  -1217.281176   -833.850104
PC12  21386.260119   4919.220041 -17197.679346    910.899741
PC13   4496.962086  26853.654852 -32005.813510    204.614709
PC14  16449.238835  -8757.420796  20784.428329    360.825265
PC16 -20618.373517  28236.929114  23514.264487   -762.694080
PC19 -14246.077810  18655.255292 -15074.553836    783.429751
PC20 -16006.703597   -486.785974 -22833.917719   -943.426660
PC21   8225.437039  20329.403715  17293.037553   -917.858139
PC22  -4235.379107  27549.671152   1658.190804   -943.524571
PC23  -2335.306085 -20287.471840 -19021.006289 999999.999999
PC24  23396.175353   9356.786221 -11975.603858   -800.460360
PC25  14325.659379  -8720.643483 -22308.078312   -939.077455
PC26  19016.949260  19968.974995   4148.624782    926.969510
PC27 -13340.440964 -11417.147379  21665.260441    508.517983
PC28   7228.082177 -17300.988792  20669.830924    -91.277072
PC29 -22979.833504  13914.925320  -7547.655428 999999.999999
PC30 -25821.786384   1724.378668  10401.211135    457.041621
PC32  -8365.159132 -20257.320723 -17247.879461 999999.999999
PC33  14218.978118 -18612.356956  15168.761778   -943.019774
PC34  26067.171197  -2164.224614  -9775.270518   -705.419839
PC35  -6912.182616  17616.961109 -20501.102853   -346.718058
PC36 -14814.153416   8069.155673  22250.205141   -735.231110
PC37 -18052.869148 -20705.271925  -4960.460099   -887.270037
PC38  -7016.289980  23166.754304 -34490.618346 999999.999999
PC39 -17404.972839  29594.197220  24409.349626     29.942242
PC40  -7320.178919  41238.791999   5400.622901    146.973096
PC41   4387.738844 -27528.931717  -1295.441337   -937.971122
PC42  15960.890792   1370.664733  22897.239992   -930.899655
PC43  23340.629319 -13601.350236   7050.553858   -666.527187
PC44  13614.417249  11184.406832 -21656.959184 999999.999999
PC45   2511.859057  20226.615707  19051.033305    402.657013
PC46 -23298.962088  -8623.990593  12748.088029    335.519541
PE01 -17011.024653 -21003.293915  12075.918365  -1078.139770
PE02  17051.304097  20888.803453 -12193.065338    209.205603
PE03  13500.755373  10500.977420  24160.296871   -415.497507
PE04 -22445.269151   8818.917009 -17155.711435   -741.393550
PE05  -3498.220437  23927.935893  17076.158709   -292.213319
PE07  18294.672291 -23263.319474    -94.173022   -520.345240
PE08  22361.316756  -9275.109658  17029.443772   6024.054778
PE09 -18086.239426  23440.673672    271.664502   5714.885796
PE11 -16736.015235  11805.853491 -21366.344037   6140.378371
PE12 -29029.214175   -219.782215  -5712.073241   5280.572821
PE13  17130.629967 -11590.832503  21186.645748    414.418102
PE14 -23806.468064  14896.007219   2714.163922  -1382.466011
PE15  29041.817873    111.060726   5762.486580    821.609029
PE18  24924.445901  -3351.593124 -14321.069887  -1512.132290
PE19 -11700.908976 -12448.691908 -24164.003401    241.776832
PE21  -6890.056438 -28174.505942  -5934.166699   -656.969705
PE24  -8273.746403  18639.620284  21428.193507   -824.707550
PE25   6757.360349  28159.393767   6109.295375   -529.936927
PE26  -5617.705056 -16642.781450  23830.279727   1973.019420
PE27   7639.869321 -19297.751311 -21111.492718     -2.266396
PE30  17851.312050   1883.948067 -23545.395666   3058.819170
PE31 -17596.215872   -878.145724  23789.370863   -479.750028
PE33 -23828.110498 -11742.333685  13050.218589   -467.121143
PE36   4879.230751  16455.198298 -24112.212757   -188.027788
PG01  20598.265615  14354.217058  -9436.863926    726.905715
PG02   1718.591667 -15523.987439  22138.447301   -591.806658
PG03  12748.023761  19092.917494  13370.464541   -124.979709
PG04  12045.870102   9729.457659  21591.386737   -189.593505
PG05  -4050.721637 -26045.578815   2178.635069    -37.894723
PG06  14997.160777  -8831.401642  20144.820676      4.331779
PG07  25656.939727   6729.015149  -3667.780221    109.062324
PG08   4533.580951  15356.682009 -21139.009762    -15.963612
PG10 -12691.570964  10214.075593 -20806.620513    -93.384210
PG11  17126.791605  11054.997337 -17291.909492 999999.999999
PG12  -9666.017696 -22270.603826  10697.524828    -22.176987
PG13   6033.321171 -18600.290966 -18047.803104    114.880244
PG14  13690.977139  -8920.954698 -20947.564280     98.483015
PG15  -7101.168828 -15212.879614 -20878.637815   -159.052731
PG16   -991.596968  25815.467115   4743.063224   -303.194870
PG17  22362.812851 -13792.349043  -3448.510675    419.591001
PG18 -25115.884596  -3936.045896  -7803.720119    351.449993
PG19  19992.162134 -16842.301989   4095.387076    -18.474027
PG20 -17095.581929 -10227.248709 -17695.548916    523.601436
PG21  15501.200466  15230.492624 -14856.961025    107.800603
PG22  10432.012993  24104.676958   4751.988081   -647.422844
PG23 -15619.644380  -2065.751494 -21407.205920    115.517533
PG24 -16981.442959 -15487.515559 -13888.272629      0.320944
PG25 -15320.121762 -10121.204901  19026.249630    110.493440
PG26  -5736.172668  21558.322120  14156.699126     66.401259
PG27  -7506.427180  20100.122130 -15574.728327   -105.093788
PG28  12581.614097 -11565.033783 -19830.484825    593.162119
PG29 -19915.024694     54.316608  17548.428985   -322.589799
PG30  21655.684497  -3429.925900 -15097.211257   -406.978245
PG31 -12977.289402  10567.527301  20642.696299   -109.127182
PG32 -21090.271752  15789.642000  -2423.399207     21.930978
PJ01 -24391.408732  31862.301406  -8339.393872   -360.996376
PJ02 -25099.787403  22985.994662  29762.808418      4.556304
PJ03 -35567.251827  19575.434626  -6766.215149     -2.656460
PR01  11299.638693   1254.731139  22839.088112     77.266459
PR02  13405.743786 -18458.097555  11518.911131    473.179121
PR03   6660.790988 -23958.566491  -5754.270503     33.465817
PR04  -3575.646077 -15808.118255 -19668.015904     80.527793
PR05 -11845.281696   1072.373025 -22547.443715     69.243418
PR07  -6238.437734  23840.634829   6541.613968    -42.553484
PR08   3779.989597  15762.323989  19747.495529    -58.289599
PR09  -8915.823322   6900.292914  22893.879826    -14.142456
PR11  15740.459348  20057.283614    945.416256      1.639870
PR12  17368.016293   9671.632251 -15948.352605    217.449314
PR13   9147.198641  -6170.909141 -23018.583738    -52.825587
PR14  -4873.437435 -18881.084154 -16432.039325     62.687252
PR15 -15618.282458 -20164.816010   -470.853314    104.604976
PR16 -17511.131206  -8501.723640  16533.457991    -13.269390
PR17   6207.248250 -11019.552067  22154.380638    412.869764
PR18 -11973.443211  -7940.897278  21074.732064 999999.999999
PR19 -23626.578268  -1657.151806   9466.991430   -138.111317
PR20 -22161.025357   7027.287097 -10431.401901    -46.471602
PR21  -5019.802959  10900.793439 -22511.034276   -198.721343
PR22  13145.220445   7559.512248 -20557.084566   -105.685829
PR24  21643.137661  -7827.722963  11009.297774     37.258982
EOF
